{
  "type": "FeatureCollection",
  "name": "numazu_centerlines",
  "created_at": "2026-01-08T00:00:00Z",
  "features": [
    {
      "type": "Feature",
      "id": "A",
      "properties": {
        "region_code": "A",
        "name": "区間①",
        "note": "Generated from provided CSV start/end coordinates"
      },
      "geometry": {
        "type": "LineString",
        "coordinates": [
          [138.8591016, 35.10112285],
          [138.8591959, 35.10166247]
        ]
      }
    },
    {
      "type": "Feature",
      "id": "B",
      "properties": {
        "region_code": "B",
        "name": "区間②",
        "note": "Generated from provided CSV start/end coordinates"
      },
      "geometry": {
        "type": "LineString",
        "coordinates": [
          [138.8589787, 35.10053387],
          [138.8591016, 35.10112285]
        ]
      }
    },
    {
      "type": "Feature",
      "id": "C",
      "properties": {
        "region_code": "C",
        "name": "区間③",
        "note": "Generated from provided CSV start/end coordinates"
      },
      "geometry": {
        "type": "LineString",
        "coordinates": [
          [138.8588745, 35.09990676],
          [138.8589787, 35.10053387]
        ]
      }
    },
    {
      "type": "Feature",
      "id": "D",
      "properties": {
        "region_code": "D",
        "name": "区間④",
        "note": "Generated from provided CSV start/end coordinates"
      },
      "geometry": {
        "type": "LineString",
        "coordinates": [
          [138.858789, 35.09935271],
          [138.8588745, 35.09990676]
        ]
      }
    },
    {
      "type": "Feature",
      "id": "E",
      "properties": {
        "region_code": "E",
        "name": "区間⑤",
        "note": "Generated from provided CSV start/end coordinates"
      },
      "geometry": {
        "type": "LineString",
        "coordinates": [
          [138.8586848, 35.09883518],
          [138.8587369, 35.09918223]
        ]
      }
    },
    {
      "type": "Feature",
      "id": "F",
      "properties": {
        "region_code": "F",
        "name": "区間⑥",
        "note": "Generated from provided CSV start/end coordinates"
      },
      "geometry": {
        "type": "LineString",
        "coordinates": [
          [138.8585397, 35.09832374],
          [138.8586848, 35.09883518]
        ]
      }
    },
    {
      "type": "Feature",
      "id": "G",
      "properties": {
        "region_code": "G",
        "name": "区間⑦",
        "note": "Generated from provided CSV start/end coordinates"
      },
      "geometry": {
        "type": "LineString",
        "coordinates": [
          [138.8583908, 35.0979432],
          [138.8584987, 35.09826894]
        ]
      }
    },
    {
      "type": "Feature",
      "id": "H",
      "properties": {
        "region_code": "H",
        "name": "区間⑧",
        "note": "Generated from provided CSV start/end coordinates"
      },
      "geometry": {
        "type": "LineString",
        "coordinates": [
          [138.8581155, 35.09722779],
          [138.8583908, 35.0979432]
        ]
      }
    },
    {
      "type": "Feature",
      "id": "I",
      "properties": {
        "region_code": "I",
        "name": "区間⑨",
        "note": "Generated from provided CSV start/end coordinates"
      },
      "geometry": {
        "type": "LineString",
        "coordinates": [
          [138.8579704, 35.09686551],
          [138.8581155, 35.09722779]
        ]
      }
    },
    {
      "type": "Feature",
      "id": "J",
      "properties": {
        "region_code": "J",
        "name": "区間⑩",
        "note": "Generated from provided CSV start/end coordinates"
      },
      "geometry": {
        "type": "LineString",
        "coordinates": [
          [138.8577583, 35.09637232],
          [138.8579704, 35.09686551]
        ]
      }
    },
    {
      "type": "Feature",
      "id": "K",
      "properties": {
        "region_code": "K",
        "name": "区間⑪",
        "note": "Generated from provided CSV start/end coordinates"
      },
      "geometry": {
        "type": "LineString",
        "coordinates": [
          [138.8594258, 35.10167467],
          [138.8592876, 35.10113967]
        ]
      }
    },
    {
      "type": "Feature",
      "id": "L",
      "properties": {
        "region_code": "L",
        "name": "区間⑫",
        "note": "Generated from provided CSV start/end coordinates"
      },
      "geometry": {
        "type": "LineString",
        "coordinates": [
          [138.8592876, 35.10113967],
          [138.8591759, 35.10051865]
        ]
      }
    },
    {
      "type": "Feature",
      "id": "M",
      "properties": {
        "region_code": "M",
        "name": "区間⑬",
        "note": "Generated from provided CSV start/end coordinates"
      },
      "geometry": {
        "type": "LineString",
        "coordinates": [
          [138.8591759, 35.10051865],
          [138.8590531, 35.09988241]
        ]
      }
    },
    {
      "type": "Feature",
      "id": "N",
      "properties": {
        "region_code": "N",
        "name": "区間⑭",
        "note": "Generated from provided CSV start/end coordinates"
      },
      "geometry": {
        "type": "LineString",
        "coordinates": [
          [138.8590531, 35.09988241],
          [138.8589452, 35.09932835]
        ]
      }
    },
    {
      "type": "Feature",
      "id": "O",
      "properties": {
        "region_code": "O",
        "name": "区間⑮",
        "note": "Generated from provided CSV start/end coordinates"
      },
      "geometry": {
        "type": "LineString",
        "coordinates": [
          [138.8589266, 35.09916396],
          [138.8586252, 35.09811064]
        ]
      }
    },
    {
      "type": "Feature",
      "id": "P",
      "properties": {
        "region_code": "P",
        "name": "区間⑯",
        "note": "Generated from provided CSV start/end coordinates"
      },
      "geometry": {
        "type": "LineString",
        "coordinates": [
          [138.8586252, 35.09811064],
          [138.8585434, 35.09788232]
        ]
      }
    },
    {
      "type": "Feature",
      "id": "Q",
      "properties": {
        "region_code": "Q",
        "name": "区間⑰",
        "note": "Generated from provided CSV start/end coordinates"
      },
      "geometry": {
        "type": "LineString",
        "coordinates": [
          [138.8585434, 35.09788232],
          [138.8583052, 35.09729172]
        ]
      }
    },
    {
      "type": "Feature",
      "id": "R",
      "properties": {
        "region_code": "R",
        "name": "区間⑱",
        "note": "Generated from provided CSV start/end coordinates"
      },
      "geometry": {
        "type": "LineString",
        "coordinates": [
          [138.8583052, 35.09729172],
          [138.8579369, 35.09633274]
        ]
      }
    }
  ]
}
